[{"OBJECT_NAME":"FLYING LAPTOP","OBJECT_ID":"2017-042G","EPOCH":"2026-03-04T04:13:58.779264","MEAN_MOTION":15.00470699,"ECCENTRICITY":0.0018555,"INCLINATION":97.425,"RA_OF_ASC_NODE":223.0967,"ARG_OF_PERICENTER":113.2625,"MEAN_ANOMALY":247.0555,"EPHEMERIS_TYPE":0,"CLASSIFICATION_TYPE":"U","NORAD_CAT_ID":42831,"ELEMENT_SET_NO":999,"REV_AT_EPOCH":47070,"BSTAR":0.00034263,"MEAN_MOTION_DOT":4.272e-5,"MEAN_MOTION_DDOT":0},{"OBJECT_NAME":"HAWK-A","OBJECT_ID":"2018-099H","EPOCH":"2026-03-04T02:12:52.205760","MEAN_MOTION":15.23122659,"ECCENTRICITY":0.0034467,"INCLINATION":97.4064,"RA_OF_ASC_NODE":116.7331,"ARG_OF_PERICENTER":296.1303,"MEAN_ANOMALY":63.6389,"EPHEMERIS_TYPE":0,"CLASSIFICATION_TYPE":"U","NORAD_CAT_ID":43765,"ELEMENT_SET_NO":999,"REV_AT_EPOCH":39709,"BSTAR":0.0004758,"MEAN_MOTION_DOT":0.00011349,"MEAN_MOTION_DDOT":0},{"OBJECT_NAME":"HAWK-B","OBJECT_ID":"2018-099AN","EPOCH":"2026-03-04T02:58:13.568160","MEAN_MOTION":15.21434136,"ECCENTRICITY":0.0031704,"INCLINATION":97.4113,"RA_OF_ASC_NODE":116.3896,"ARG_OF_PERICENTER":313.9307,"MEAN_ANOMALY":45.9313,"EPHEMERIS_TYPE":0,"CLASSIFICATION_TYPE":"U","NORAD_CAT_ID":43794,"ELEMENT_SET_NO":999,"REV_AT_EPOCH":39705,"BSTAR":0.0004241,"MEAN_MOTION_DOT":9.588e-5,"MEAN_MOTION_DDOT":0},{"OBJECT_NAME":"HAWK-C","OBJECT_ID":"2018-099AT","EPOCH":"2026-03-04T02:24:15.563232","MEAN_MOTION":15.26279019,"ECCENTRICITY":0.0040629,"INCLINATION":97.404,"RA_OF_ASC_NODE":117.1589,"ARG_OF_PERICENTER":297.9203,"MEAN_ANOMALY":61.7924,"EPHEMERIS_TYPE":0,"CLASSIFICATION_TYPE":"U","NORAD_CAT_ID":43799,"ELEMENT_SET_NO":999,"REV_AT_EPOCH":39787,"BSTAR":0.00050199,"MEAN_MOTION_DOT":0.00013265,"MEAN_MOTION_DDOT":0},{"OBJECT_NAME":"SALSAT","OBJECT_ID":"2020-068K","EPOCH":"2026-03-03T18:42:46.219968","MEAN_MOTION":15.28039347,"ECCENTRICITY":0.00087313,"INCLINATION":97.8847,"RA_OF_ASC_NODE":59.5668,"ARG_OF_PERICENTER":321.6728,"MEAN_ANOMALY":38.3888,"EPHEMERIS_TYPE":0,"CLASSIFICATION_TYPE":"U","NORAD_CAT_ID":46495,"ELEMENT_SET_NO":999,"REV_AT_EPOCH":29925,"BSTAR":0.00046597086,"MEAN_MOTION_DOT":0.00012684,"MEAN_MOTION_DDOT":0},{"OBJECT_NAME":"HAWK-2C","OBJECT_ID":"2021-006CT","EPOCH":"2026-03-04T03:05:04.223040","MEAN_MOTION":15.33187058,"ECCENTRICITY":0.0006343,"INCLINATION":97.2423,"RA_OF_ASC_NODE":109.5609,"ARG_OF_PERICENTER":204.81,"MEAN_ANOMALY":155.2838,"EPHEMERIS_TYPE":0,"CLASSIFICATION_TYPE":"U","NORAD_CAT_ID":47502,"ELEMENT_SET_NO":999,"REV_AT_EPOCH":28339,"BSTAR":0.00031955,"MEAN_MOTION_DOT":0.00010178,"MEAN_MOTION_DDOT":0},{"OBJECT_NAME":"HAWK-2A","OBJECT_ID":"2021-006CW","EPOCH":"2026-03-04T03:10:13.204128","MEAN_MOTION":15.3320712,"ECCENTRICITY":0.0005887,"INCLINATION":97.2467,"RA_OF_ASC_NODE":110.1797,"ARG_OF_PERICENTER":208.0476,"MEAN_ANOMALY":152.045,"EPHEMERIS_TYPE":0,"CLASSIFICATION_TYPE":"U","NORAD_CAT_ID":47505,"ELEMENT_SET_NO":999,"REV_AT_EPOCH":28339,"BSTAR":0.00040419,"MEAN_MOTION_DOT":0.00012905,"MEAN_MOTION_DDOT":0},{"OBJECT_NAME":"HAWK-2B","OBJECT_ID":"2021-006CZ","EPOCH":"2026-03-04T01:31:35.059872","MEAN_MOTION":15.3317804,"ECCENTRICITY":0.00065,"INCLINATION":97.234,"RA_OF_ASC_NODE":108.6207,"ARG_OF_PERICENTER":206.5248,"MEAN_ANOMALY":153.5663,"EPHEMERIS_TYPE":0,"CLASSIFICATION_TYPE":"U","NORAD_CAT_ID":47508,"ELEMENT_SET_NO":999,"REV_AT_EPOCH":28338,"BSTAR":0.00032703,"MEAN_MOTION_DOT":0.00010416,"MEAN_MOTION_DDOT":0},{"OBJECT_NAME":"HAWK-3B","OBJECT_ID":"2021-059BE","EPOCH":"2026-03-04T00:54:53.451360","MEAN_MOTION":15.61050876,"ECCENTRICITY":0.000539,"INCLINATION":97.671,"RA_OF_ASC_NODE":250.4554,"ARG_OF_PERICENTER":359.9778,"MEAN_ANOMALY":0.1477,"EPHEMERIS_TYPE":0,"CLASSIFICATION_TYPE":"U","NORAD_CAT_ID":48931,"ELEMENT_SET_NO":999,"REV_AT_EPOCH":26140,"BSTAR":0.00057813,"MEAN_MOTION_DOT":0.0004873,"MEAN_MOTION_DDOT":0},{"OBJECT_NAME":"HAWK-3C","OBJECT_ID":"2021-059BX","EPOCH":"2026-03-04T00:54:33.371136","MEAN_MOTION":15.61055146,"ECCENTRICITY":0.0006056,"INCLINATION":97.6859,"RA_OF_ASC_NODE":255.943,"ARG_OF_PERICENTER":359.8702,"MEAN_ANOMALY":0.2552,"EPHEMERIS_TYPE":0,"CLASSIFICATION_TYPE":"U","NORAD_CAT_ID":48948,"ELEMENT_SET_NO":999,"REV_AT_EPOCH":26140,"BSTAR":0.00059901,"MEAN_MOTION_DOT":0.00050523,"MEAN_MOTION_DDOT":0},{"OBJECT_NAME":"HAWK-3A","OBJECT_ID":"2021-059CG","EPOCH":"2026-03-04T02:26:36.791808","MEAN_MOTION":15.61062499,"ECCENTRICITY":0.0005488,"INCLINATION":97.6797,"RA_OF_ASC_NODE":253.3059,"ARG_OF_PERICENTER":359.4965,"MEAN_ANOMALY":0.6285,"EPHEMERIS_TYPE":0,"CLASSIFICATION_TYPE":"U","NORAD_CAT_ID":48957,"ELEMENT_SET_NO":999,"REV_AT_EPOCH":26141,"BSTAR":0.00059481,"MEAN_MOTION_DOT":0.00050173,"MEAN_MOTION_DDOT":0},{"OBJECT_NAME":"HAWK-5C","OBJECT_ID":"2022-057Y","EPOCH":"2026-03-04T03:54:33.474816","MEAN_MOTION":15.4723669,"ECCENTRICITY":0.0005668,"INCLINATION":97.6446,"RA_OF_ASC_NODE":216.4826,"ARG_OF_PERICENTER":94.219,"MEAN_ANOMALY":265.9707,"EPHEMERIS_TYPE":0,"CLASSIFICATION_TYPE":"U","NORAD_CAT_ID":52754,"ELEMENT_SET_NO":999,"REV_AT_EPOCH":21008,"BSTAR":0.00059208,"MEAN_MOTION_DOT":0.00030131,"MEAN_MOTION_DDOT":0},{"OBJECT_NAME":"HAWK-5B","OBJECT_ID":"2022-057AA","EPOCH":"2026-03-04T03:54:22.238496","MEAN_MOTION":15.47238049,"ECCENTRICITY":0.0005645,"INCLINATION":97.6445,"RA_OF_ASC_NODE":214.8221,"ARG_OF_PERICENTER":88.8148,"MEAN_ANOMALY":271.3748,"EPHEMERIS_TYPE":0,"CLASSIFICATION_TYPE":"U","NORAD_CAT_ID":52756,"ELEMENT_SET_NO":999,"REV_AT_EPOCH":21008,"BSTAR":0.00058559,"MEAN_MOTION_DOT":0.00029799,"MEAN_MOTION_DDOT":0},{"OBJECT_NAME":"HAWK-5A","OBJECT_ID":"2022-057AB","EPOCH":"2026-03-04T03:53:58.114752","MEAN_MOTION":15.47236384,"ECCENTRICITY":0.0006042,"INCLINATION":97.6448,"RA_OF_ASC_NODE":215.6562,"ARG_OF_PERICENTER":90.8681,"MEAN_ANOMALY":269.326,"EPHEMERIS_TYPE":0,"CLASSIFICATION_TYPE":"U","NORAD_CAT_ID":52757,"ELEMENT_SET_NO":999,"REV_AT_EPOCH":21008,"BSTAR":0.0005974,"MEAN_MOTION_DOT":0.00030406,"MEAN_MOTION_DDOT":0},{"OBJECT_NAME":"HAWK-6B","OBJECT_ID":"2023-011A","EPOCH":"2026-03-03T16:50:06.085248","MEAN_MOTION":15.21808026,"ECCENTRICITY":0.00029683,"INCLINATION":40.5117,"RA_OF_ASC_NODE":246.8438,"ARG_OF_PERICENTER":345.8045,"MEAN_ANOMALY":14.268,"EPHEMERIS_TYPE":0,"CLASSIFICATION_TYPE":"U","NORAD_CAT_ID":55324,"ELEMENT_SET_NO":999,"REV_AT_EPOCH":17176,"BSTAR":0.00036732802,"MEAN_MOTION_DOT":8.331e-5,"MEAN_MOTION_DDOT":0},{"OBJECT_NAME":"HAWK-6C","OBJECT_ID":"2023-011C","EPOCH":"2026-03-03T21:32:44.011104","MEAN_MOTION":15.2180501,"ECCENTRICITY":0.0003324,"INCLINATION":40.482,"RA_OF_ASC_NODE":242.5819,"ARG_OF_PERICENTER":333.49,"MEAN_ANOMALY":26.5738,"EPHEMERIS_TYPE":0,"CLASSIFICATION_TYPE":"U","NORAD_CAT_ID":55326,"ELEMENT_SET_NO":999,"REV_AT_EPOCH":17180,"BSTAR":0.00038672,"MEAN_MOTION_DOT":8.782e-5,"MEAN_MOTION_DDOT":0},{"OBJECT_NAME":"HAWK-6A","OBJECT_ID":"2023-011D","EPOCH":"2026-03-03T16:49:15.466080","MEAN_MOTION":15.21805084,"ECCENTRICITY":0.0003032,"INCLINATION":40.4971,"RA_OF_ASC_NODE":245.3291,"ARG_OF_PERICENTER":330.8809,"MEAN_ANOMALY":29.183,"EPHEMERIS_TYPE":0,"CLASSIFICATION_TYPE":"U","NORAD_CAT_ID":55327,"ELEMENT_SET_NO":999,"REV_AT_EPOCH":17177,"BSTAR":0.00037748706,"MEAN_MOTION_DOT":8.566e-5,"MEAN_MOTION_DDOT":0}]
