FLYING LAPTOP           
1 42831U 17042G   26063.17637476  .00004272  00000+0  34263-3 0  9995
2 42831  97.4250 223.0967 0018555 113.2625 247.0555 15.00470699470707
HAWK-A                  
1 43765U 18099H   26063.09227090  .00011349  00000+0  47580-3 0  9992
2 43765  97.4064 116.7331 0034467 296.1303  63.6389 15.23122659397096
HAWK-B                  
1 43794U 18099AN  26063.12376815  .00009588  00000+0  42410-3 0  9997
2 43794  97.4113 116.3896 0031704 313.9307  45.9313 15.21434136397058
HAWK-C                  
1 43799U 18099AT  26063.10018013  .00013265  00000+0  50199-3 0  9993
2 43799  97.4040 117.1589 0040629 297.9203  61.7924 15.26279019397878
SALSAT                  
1 46495U 20068K   26062.77970162  .00012684  00000+0  46597-3 0  9993
2 46495  97.8847  59.5668 0008731 321.6728  38.3888 15.28039347299257
HAWK-2C                 
1 47502U 21006CT  26063.12852110  .00010178  00000+0  31955-3 0  9996
2 47502  97.2423 109.5609 0006343 204.8100 155.2838 15.33187058283396
HAWK-2A                 
1 47505U 21006CW  26063.13209727  .00012905  00000+0  40419-3 0  9995
2 47505  97.2467 110.1797 0005887 208.0476 152.0450 15.33207120283395
HAWK-2B                 
1 47508U 21006CZ  26063.06360023  .00010416  00000+0  32703-3 0  9999
2 47508  97.2340 108.6207 0006500 206.5248 153.5663 15.33178040283388
HAWK-3B                 
1 48931U 21059BE  26063.03811865  .00048730  00000+0  57813-3 0  9999
2 48931  97.6710 250.4554 0005390 359.9778   0.1477 15.61050876261408
HAWK-3C                 
1 48948U 21059BX  26063.03788624  .00050523  00000+0  59901-3 0  9996
2 48948  97.6859 255.9430 0006056 359.8702   0.2552 15.61055146261409
HAWK-3A                 
1 48957U 21059CG  26063.10181472  .00050173  00000+0  59481-3 0  9996
2 48957  97.6797 253.3059 0005488 359.4965   0.6285 15.61062499261411
HAWK-5C                 
1 52754U 22057Y   26063.16288744  .00030131  00000+0  59208-3 0  9990
2 52754  97.6446 216.4826 0005668  94.2190 265.9707 15.47236690210080
HAWK-5B                 
1 52756U 22057AA  26063.16275739  .00029799  00000+0  58559-3 0  9998
2 52756  97.6445 214.8221 0005645  88.8148 271.3748 15.47238049210085
HAWK-5A                 
1 52757U 22057AB  26063.16247818  .00030406  00000+0  59740-3 0  9996
2 52757  97.6448 215.6562 0006042  90.8681 269.3260 15.47236384210089
HAWK-6B                 
1 55324U 23011A   26062.70145932  .00008331  00000+0  36733-3 0  9992
2 55324  40.5117 246.8438 0002968 345.8045  14.2680 15.21808026171764
HAWK-6C                 
1 55326U 23011C   26062.89773161  .00008782  00000+0  38672-3 0  9999
2 55326  40.4820 242.5819 0003324 333.4900  26.5738 15.21805010171807
HAWK-6A                 
1 55327U 23011D   26062.70087345  .00008566  00000+0  37749-3 0  9996
2 55327  40.4971 245.3291 0003032 330.8809  29.1830 15.21805084171774
